ONEWEB-0271             
1 48989U 21060Y   25170.81735248  .00000072  00000+0  15544-3 0  9990
2 48989  87.9046 300.9923 0002065 107.6815 252.4541 13.16594512193273
ONEWEB-0272             
1 48990U 21060Z   25171.37148190  .00000039  00000+0  68716-4 0  9991
2 48990  87.9047 300.9133 0001978 105.1938 254.9412 13.16593066193301
ONEWEB-0273             
1 48991U 21060AA  25170.63368067  .00000081  00000+0  17846-3 0  9991
2 48991  87.9046 301.0449 0002096 101.5044 258.6322 13.16593897193182
ONEWEB-0274             
1 48992U 21060AB  25171.34298915  .00000056  00000+0  11166-3 0  9996
2 48992  87.9041 300.9393 0001639 110.6700 249.4607 13.16594294193317
ONEWEB-0275             
1 48993U 21060AC  25170.64794129  .00000110  00000+0  25435-3 0  9992
2 48993  87.9047 301.0368 0001911 103.7360 256.3984 13.16595500191859
ONEWEB-0276             
1 48994U 21060AD  25170.60518601  .00000053  00000+0  10517-3 0  9999
2 48994  87.9048 301.0425 0002150 102.0566 258.0806 13.16593886191869
ONEWEB-0277             
1 48995U 21060AE  25170.61784111 -.00000013  00000+0 -68456-4 0  9996
2 48995  87.9045 301.0754 0002117 110.5462 249.5897 13.16593303193146
ONEWEB-0278             
1 48996U 21060AF  25171.29232214  .00000018  00000+0  14737-4 0  9990
2 48996  87.9049 300.9019 0002035  95.2803 264.8560 13.16593695193387
ONEWEB-0279             
1 48997U 21060AG  25170.61626365  .00000048  00000+0  91650-4 0  9992
2 48997  87.9047 301.0327 0002001 110.3313 249.8033 13.16594100193210
ONEWEB-0280             
1 48998U 21060AH  25170.78330279 -.00000047  00000+0 -15632-3 0  9993
2 48998  87.9047 301.0058 0002290 100.4130 259.7259 13.16593901193161
ONEWEB-0281             
1 48999U 21060AJ  25170.63685933  .00000015  00000+0  54530-5 0  9993
2 48999  87.9046 301.0329 0001731 101.6498 258.4827 13.16595411191928
ONEWEB-0282             
1 49000U 21060AK  25171.12291362  .00000088  00000+0  19558-3 0  9990
2 49000  87.9041 300.9499 0002092 102.0921 258.0444 13.16593502193281
ONEWEB-0283             
1 49001U 21060AL  25170.65585225  .00000147  00000+0  35205-3 0  9995
2 49001  87.9042 301.0468 0002018 106.7143 253.4210 13.16593824191911
ONEWEB-0284             
1 49002U 21060AM  25170.64951077  .00000050  00000+0  96340-4 0  9998
2 49002  87.9053 301.0160 0002110  93.5340 266.6033 13.16592902191890
ONEWEB-0285             
1 49075U 21075A   25171.39119706  .00000258  00000+0  68122-3 0  9998
2 49075  87.8882  62.6188 0001948  76.4803 283.6543 13.12441376188739
ONEWEB-0286             
1 49076U 21075B   25170.61071377  .00000377  00000+0  10132-2 0  9993
2 49076  87.8904  62.7935 0001784  73.9161 286.2164 13.12443342187982
ONEWEB-0287             
1 49077U 21075C   25170.49549758 -.00000008  00000+0 -54870-4 0  9995
2 49077  87.9067  78.0692 0001942  65.4304 294.7030 13.17648998185865
ONEWEB-0288             
1 49078U 21075D   25171.12016239 -.00000312  00000+0 -90247-3 0  9995
2 49078  87.8874  62.6661 0001978  75.4003 284.7344 13.12443051188680
ONEWEB-0289             
1 49079U 21075E   25171.20761540  .00000016  00000+0  84782-5 0  9995
2 49079  87.9071  77.9590 0002423  77.5077 282.6326 13.17648303187500
ONEWEB-0290             
1 49080U 21075F   25171.49449427  .00000026  00000+0  34556-4 0  9999
2 49080  87.9068  77.8575 0002585  83.5867 276.5559 13.17649151186964
ONEWEB-0291             
1 49081U 21075G   25171.47930346  .00000026  00000+0  33118-4 0  9996
2 49081  87.9062  77.8632 0002103  73.2113 286.9250 13.17648269186961
ONEWEB-0293             
1 49082U 21075H   25171.20087179  .00000017  00000+0  11664-4 0  9997
2 49082  87.9070  77.9511 0002094  77.0763 283.0602 13.17648635186944
ONEWEB-0294             
1 49083U 21075J   25171.43159995 -.00000062  00000+0 -20863-3 0  9991
2 49083  87.8878  62.6036 0002385  76.1617 283.9776 13.12443161188118
ONEWEB-0295             
1 49084U 21075K   25170.44066336  .00000074  00000+0  15623-3 0  9997
2 49084  87.9085  78.0973 0002086  67.9090 292.2263 13.17649344185827
ONEWEB-0296             
1 49085U 21075L   25170.42106438 -.00000268  00000+0 -77991-3 0  9997
2 49085  87.8881  62.8135 0002264  66.7600 293.3767 13.12443400186994
ONEWEB-0297             
1 49086U 21075M   25171.13800939  .00000246  00000+0  64709-3 0  9991
2 49086  87.8889  62.7050 0001811  76.3860 283.7470 13.12442924188682
ONEWEB-0298             
1 49087U 21075N   25171.43218117  .00000011  00000+0 -47133-5 0  9991
2 49087  87.9072  77.9033 0001768  74.2821 285.8505 13.17651137186977
ONEWEB-0299             
1 49088U 21075P   25171.43372833  .00000018  00000+0  12133-4 0  9995
2 49088  87.9065  77.8563 0001821  73.0870 287.0461 13.17648186186939
ONEWEB-0300             
1 49089U 21075Q   25170.74871302  .00000084  00000+0  19880-3 0  9992
2 49089  87.8879  62.7382 0001583  85.0316 275.0993 13.12443135188657
ONEWEB-0301             
1 49090U 21075R   25171.11367076 -.00000405  00000+0 -11611-2 0  9996
2 49090  87.8878  62.6712 0001509  88.5980 271.5321 13.12442307188068
ONEWEB-0302             
1 49091U 21075S   25170.41455426 -.00000295  00000+0 -85456-3 0  9992
2 49091  87.8881  62.8124 0002231  75.5808 284.5568 13.12440871186968
ONEWEB-0304             
1 49092U 21075T   25170.49719379  .00000011  00000+0 -57048-5 0  9994
2 49092  87.9068  78.0732 0001935  74.0075 286.1269 13.17649546185815
ONEWEB-0305             
1 49093U 21075U   25171.17386158  .00000031  00000+0  46655-4 0  9998
2 49093  87.9064  77.9155 0001880  65.1608 294.9719 13.17650331186903
ONEWEB-0308             
1 49094U 21075V   25171.17044586 -.00000032  00000+0 -12508-3 0  9997
2 49094  87.8879  62.6565 0001850  80.1660 279.9678 13.12440977188092
ONEWEB-0309             
1 49095U 21075W   25171.17725127  .00000006  00000+0 -18429-4 0  9994
2 49095  87.9068  77.9314 0002394  76.8111 283.3288 13.17650957186890
ONEWEB-0310             
1 49096U 21075X   25170.42266593 -.00000377  00000+0 -10823-2 0  9999
2 49096  87.8888  62.8471 0001978  77.6409 282.4940 13.12441761187604
ONEWEB-0311             
1 49097U 21075Y   25170.50055529 -.00000049  00000+0 -15811-3 0  9993
2 49097  87.9071  78.0677 0001827  65.1504 294.9817 13.17651698185862
ONEWEB-0312             
1 49098U 21075Z   25171.19917462  .00000071  00000+0  15043-3 0  9993
2 49098  87.9068  77.9592 0002143  69.2533 290.8828 13.17647963186916
ONEWEB-0313             
1 49099U 21075AA  25171.20409433  .00000034  00000+0  55133-4 0  9994
2 49099  87.9070  77.9739 0001821  76.7491 283.3844 13.17647473186923
ONEWEB-0314             
1 49100U 21075AB  25171.17048684  .00000007  00000+0 -16282-4 0  9993
2 49100  87.9064  77.9119 0002100  67.5399 292.5955 13.17650693186885
ONEWEB-0315             
1 49101U 21075AC  25170.39671833  .00000183  00000+0  47366-3 0  9995
2 49101  87.8879  62.8009 0001590  69.3476 290.7823 13.12440636187589
ONEWEB-0316             
1 49102U 21075AD  25170.69748250  .00000238  00000+0  57046-3 0  9994
2 49102  87.9142  47.5016 0001621  76.7374 283.3938 13.18683863190447
ONEWEB-0317             
1 49103U 21075AE  25171.45757342  .00000455  00000+0  12306-2 0  9992
2 49103  87.8878  62.6045 0002641  86.5275 273.6156 13.12443662188733
ONEWEB-0318             
1 49104U 21075AF  25171.07369771  .00000055  00000+0  10721-3 0  9992
2 49104  87.9143  47.4121 0001651  74.7672 285.3642 13.18687346190442
ONEWEB-0319             
1 49105U 21075AG  25170.50225814  .00000345  00000+0  85558-3 0  9991
2 49105  87.9071  78.0923 0001766  63.6343 296.4970 13.17647920185840
ONEWEB-0323             
1 49106U 21075AH  25171.14287651  .00000383  00000+0  10288-2 0  9999
2 49106  87.8879  62.6529 0001695  55.2614 304.8674 13.12442798188069
ONEWEB-0329             
1 49107U 21075AJ  25171.49785953  .00000032  00000+0  49099-4 0  9991
2 49107  87.9070  77.8985 0001936  70.9163 289.2178 13.17648507186940
ONEWEB-0330             
1 49108U 21075AK  25171.49953969  .00000042  00000+0  75313-4 0  9995
2 49108  87.9071  77.9007 0002094  72.9375 287.1986 13.17651340186988
ONEWEB-0292             
1 49186U 21083A   25171.01726862 -.00000246  00000+0 -70966-3 0  9994
2 49186  87.8968  32.2343 0001656  79.1683 280.9632 13.13468678184678
ONEWEB-0303             
1 49187U 21083B   25171.07053083  .00000105  00000+0  23282-3 0  9990
2 49187  87.9145  47.4141 0001691  75.3876 284.7443 13.18688478183535
ONEWEB-0306             
1 49188U 21083C   25171.06105079  .00000065  00000+0  13317-3 0  9996
2 49188  87.9146  47.4014 0002021  84.6684 275.4679 13.18688514183577
ONEWEB-0307             
1 49189U 21083D   25171.01134589 -.00000130  00000+0 -39168-3 0  9997
2 49189  87.8969  32.2397 0002128  85.1166 275.0206 13.13468542184671
ONEWEB-0320             
1 49190U 21083E   25171.37090270  .00002902  00000+0  73271-2 0  9995
2 49190  87.9142  47.3687 0001733  78.9046 281.2281 13.18672341183573
ONEWEB-0321             
1 49191U 21083F   25171.23498664 -.00000033  00000+0 -11205-3 0  9995
2 49191  87.9259 346.5279 0002132  97.7203 262.4172 13.20772319190333
ONEWEB-0322             
1 49192U 21083G   25171.08329547  .00000093  00000+0  22075-3 0  9993
2 49192  87.8969  32.2151 0002073  91.5691 268.5675 13.13469364184676
ONEWEB-0324             
1 49193U 21083H   25171.05317683 -.00001684  00000+0 -43068-2 0  9992
2 49193  87.9138  47.4100 0001982  71.8852 288.2496 13.18670070183555
ONEWEB-0325             
1 49194U 21083J   25171.05788977 -.00000037  00000+0 -12715-3 0  9998
2 49194  87.9145  47.4275 0001912  84.5240 275.6110 13.18685657183563
ONEWEB-0326             
1 49195U 21083K   25170.16175052 -.00000094  00000+0 -27032-3 0  9995
2 49195  87.9142  47.5956 0001527  71.4622 288.6676 13.18687307182158
ONEWEB-0327             
1 49196U 21083L   25171.07199280  .00000023  00000+0  25261-4 0  9999
2 49196  87.9143  47.4431 0001532  75.8393 284.2909 13.18686862183579
